H1 CPF 01  gfz 2021 11 14 01  8181 tandemx   
H2 1003001  6202 36605    2021 11 14 00 59 42 2021 11 19 00 00 42   120 1 1  0 0 0
H9
10 0 59533  82782.000000  0    1053262.679  -5662670.793   3769918.113
10 0 59533  82902.000000  0     769959.837  -5160159.357   4488763.925
10 0 59533  83022.000000  0     482828.296  -4562476.062   5128603.717
10 0 59533  83142.000000  0     198463.298  -3880085.784   5678208.384
10 0 59533  83262.000000  0     -76788.854  -3125039.935   6127947.068
10 0 59533  83382.000000  0    -336967.495  -2310754.567   6469949.765
10 0 59533  83502.000000  0    -576622.777  -1451767.335   6698237.735
10 0 59533  83622.000000  0    -790926.676   -563475.962   6808822.910
10 0 59533  83742.000000  0    -975768.426    338139.223   6799774.322
10 0 59533  83862.000000  0   -1127832.726   1236803.064   6671249.618
10 0 59533  83982.000000  0   -1244658.749   2116238.782   6425492.178
10 0 59533  84102.000000  0   -1324679.876   2960462.294   6066794.512
10 0 59533  84222.000000  0   -1367243.930   3754073.638   5601427.788
10 0 59533  84342.000000  0   -1372612.526   4482540.535   5037537.848
10 0 59533  84462.000000  0   -1341940.329   5132470.197   4385009.313
10 0 59533  84582.000000  0   -1277234.375   5691863.663   3655296.440
10 0 59533  84702.000000  0   -1181293.896   6150345.455   2861225.126
10 0 59533  84822.000000  0   -1057634.185   6499367.168   2016768.347
10 0 59533  84942.000000  0    -910391.180   6732376.599   1136795.768
10 0 59533  85062.000000  0    -744212.025   6844947.087    236806.087
10 0 59533  85182.000000  0    -564134.173   6834866.353   -667353.067
10 0 59533  85302.000000  0    -375455.745   6702181.109  -1559774.458
10 0 59533  85422.000000  0    -183601.093   6449192.828  -2424781.139
10 0 59533  85542.000000  0       6014.249   6080408.247  -3247207.318
10 0 59533  85662.000000  0     188116.522   5602448.661  -4012666.924
10 0 59533  85782.000000  0     357702.138   5023919.137  -4707805.256
10 0 59533  85902.000000  0     510158.010   4355241.180  -5320528.276
10 0 59533  86022.000000  0     641371.086   3608453.949  -5840206.018
10 0 59533  86142.000000  0     747824.161   2796988.340  -6257847.539
10 0 59533  86262.000000  0     826676.629   1935419.642  -6566244.977
10 0 59533  86382.000000  0     875829.169   1039204.832  -6760086.242
10 0 59534    102.000000  0     893970.762    124407.807  -6836037.473
10 0 59534    222.000000  0     880608.160   -792583.769  -6792794.207
10 0 59534    342.000000  0     836076.601  -1695345.601  -6631099.827
10 0 59534    462.000000  0     761532.567  -2567702.081  -6353733.268
10 0 59534    582.000000  0     658928.725  -3394009.330  -5965468.922
10 0 59534    702.000000  0     530969.846  -4159434.115  -5473003.522
10 0 59534    822.000000  0     381052.153  -4850219.811  -4884850.378
10 0 59534    942.000000  0     213186.154  -5453937.438  -4211204.195
10 0 59534   1062.000000  0      31903.701  -5959717.585  -3463774.979
10 0 59534   1182.000000  0    -157848.517  -6358456.591  -2655592.371
10 0 59534   1302.000000  0    -350827.060  -6642993.076  -1800784.224
10 0 59534   1422.000000  0    -541618.881  -6808250.281   -914330.418
10 0 59534   1542.000000  0    -724774.438  -6851337.933    -11797.048
10 0 59534   1662.000000  0    -894943.479  -6771611.170    890942.632
10 0 59534   1782.000000  0   -1047010.368  -6570685.546   1777994.954
10 0 59534   1902.000000  0   -1176225.205  -6252406.271   2633735.143
10 0 59534   2022.000000  0   -1278327.000  -5822771.899   3443091.702
10 0 59534   2142.000000  0   -1349655.059  -5289814.256   4191819.393
10 0 59534   2262.000000  0   -1387246.855  -4663438.461   4866752.851
10 0 59534   2382.000000  0   -1388920.103  -3955230.259   5456038.711
10 0 59534   2502.000000  0   -1353337.323  -3178232.081   5949343.477
10 0 59534   2622.000000  0   -1280050.461  -2346692.682   6338029.936
10 0 59534   2742.000000  0   -1169524.891  -1475800.248   6615300.995
10 0 59534   2862.000000  0   -1023144.120   -581402.359   6776313.089
10 0 59534   2982.000000  0    -843195.131    320284.302   6818255.640
10 0 59534   3102.000000  0    -632833.144   1212967.497   6740397.109
10 0 59534   3222.000000  0    -396025.950   2080573.502   6544097.288
10 0 59534   3342.000000  0    -137479.294   2907536.255   6232784.831
10 0 59534   3462.000000  0     137455.149   3679076.924   5811901.047
10 0 59534   3582.000000  0     422887.454   4381470.854   5288810.138
10 0 59534   3702.000000  0     712512.068   5002296.352   4672676.499
10 0 59534   3822.000000  0     999743.061   5530662.167   3974309.174
10 0 59534   3942.000000  0    1277856.920   5957405.480   3205976.072
10 0 59534   4062.000000  0    1540145.298   6275263.563   2381193.326
10 0 59534   4182.000000  0    1780069.869   6479007.286   1514481.502
10 0 59534   4302.000000  0    1991415.150   6565533.246    621104.837
10 0 59534   4422.000000  0    2168437.476   6533912.897   -283205.513
10 0 59534   4542.000000  0    2306004.599   6385398.318  -1182536.270
10 0 59534   4662.000000  0    2399723.481   6123384.872  -2061079.880
10 0 59534   4782.000000  0    2446053.174   5753331.584  -2903419.395
10 0 59534   4902.000000  0    2442399.650   5282640.956  -3694804.697
10 0 59534   5022.000000  0    2387190.111   4720500.599  -4421413.286
10 0 59534   5142.000000  0    2279924.785   4077692.789  -5070589.345
10 0 59534   5262.000000  0    2121206.234   3366377.881  -5631057.736
10 0 59534   5382.000000  0    1912746.193   2599857.043  -6093111.145
10 0 59534   5502.000000  0    1657349.369   1792318.322  -6448767.464
10 0 59534   5622.000000  0    1358876.002    958573.102  -6691895.480
10 0 59534   5742.000000  0    1022183.872    113786.967  -6818310.874
10 0 59534   5862.000000  0     653049.000   -726791.769  -6825840.698
10 0 59534   5982.000000  0     258067.698  -1548101.372  -6714355.171
10 0 59534   6102.000000  0    -155457.920  -2335528.458  -6485768.822
10 0 59534   6222.000000  0    -579650.935  -3075161.804  -6144013.225
10 0 59534   6342.000000  0   -1006205.672  -3754035.715  -5694976.443
10 0 59534   6462.000000  0   -1426545.266  -4360356.260  -5146411.579
10 0 59534   6582.000000  0   -1831989.872  -4883709.861  -4507815.186
10 0 59534   6702.000000  0   -2213932.785  -5315249.420  -3790273.836
10 0 59534   6822.000000  0   -2564020.591  -5647852.947  -3006280.636
10 0 59534   6942.000000  0   -2874333.258  -5876251.444  -2169524.452
10 0 59534   7062.000000  0   -3137560.626  -5997123.380  -1294654.328
10 0 59534   7182.000000  0   -3347170.987  -6009152.225   -397021.716
10 0 59534   7302.000000  0   -3497566.289  -5913043.496    507594.342
10 0 59534   7422.000000  0   -3584219.954  -5711501.014   1403272.123
10 0 59534   7542.000000  0   -3603793.975  -5409162.557   2274236.765
10 0 59534   7662.000000  0   -3554231.541  -5012495.686   3105147.098
10 0 59534   7782.000000  0   -3434823.218  -4529657.893   3881373.110
10 0 59534   7902.000000  0   -3246245.169  -3970324.324   4589259.006
10 0 59534   8022.000000  0   -2990568.623  -3345486.898   5216365.821
10 0 59534   8142.000000  0   -2671240.735  -2667231.105   5751688.922
10 0 59534   8262.000000  0   -2293037.148  -1948496.464   6185847.383
10 0 59534   8382.000000  0   -1861988.393  -1202825.874   6511244.173
10 0 59534   8502.000000  0   -1385280.010   -444106.217   6722194.530
10 0 59534   8622.000000  0    -871130.017    313692.245   6815016.812
10 0 59534   8742.000000  0    -328647.595   1056771.437   6788092.460
10 0 59534   8862.000000  0     232328.181   1771756.345   6641893.171
10 0 59534   8982.000000  0     801406.631   2445935.776   6378973.128
10 0 59534   9102.000000  0    1367837.354   3067488.098   6003926.464
10 0 59534   9222.000000  0    1920712.287   3625689.875   5523312.280
10 0 59534   9342.000000  0    2449175.538   4111104.925   4945546.372
10 0 59534   9462.000000  0    2942638.407   4515749.496   4280759.365
10 0 59534   9582.000000  0    3390992.796   4833228.523   3540622.869
10 0 59534   9702.000000  0    3784820.205   5058843.419   2738149.549
10 0 59534   9822.000000  0    4115594.778   5189668.554   1887462.384
10 0 59534   9942.000000  0    4375866.963   5224587.376   1003540.978
10 0 59534  10062.000000  0    4559430.187   5164296.832    101953.095
10 0 59534  10182.000000  0    4661462.914   5011272.315   -801430.126
10 0 59534  10302.000000  0    4678642.824   4769694.781  -1690721.406
10 0 59534  10422.000000  0    4609231.499   4445345.561  -2550304.032
10 0 59534  10542.000000  0    4453126.805   4045470.204  -3365112.259
10 0 59534  10662.000000  0    4211881.262   3578614.691  -4120899.081
10 0 59534  10782.000000  0    3888686.832   3054438.744  -4804484.346
10 0 59534  10902.000000  0    3488328.692   2483511.743  -5403980.290
10 0 59534  11022.000000  0    3017108.175   1877096.269  -5908991.193
10 0 59534  11142.000000  0    2482737.139   1246923.703  -6310783.468
10 0 59534  11262.000000  0    1894206.800    604967.485  -6602424.659
10 0 59534  11382.000000  0    1261635.218    -36781.220  -6778891.205
10 0 59534  11502.000000  0     596094.565   -666533.125  -6837147.620
10 0 59534  11622.000000  0     -90580.909  -1272912.985  -6776191.950
10 0 59534  11742.000000  0    -785999.742  -1845158.955  -6597069.955
10 0 59534  11862.000000  0   -1477431.127  -2373308.756  -6302860.393
10 0 59534  11982.000000  0   -2152032.803  -2848370.908  -5898627.755
10 0 59534  12102.000000  0   -2797084.290  -3262476.727  -5391344.098
10 0 59534  12222.000000  0   -3400224.457  -3609012.966  -4789781.328
10 0 59534  12342.000000  0   -3949689.639  -3882732.059  -4104370.634
10 0 59534  12462.000000  0   -4434545.655  -4079836.354  -3347031.550
10 0 59534  12582.000000  0   -4844910.338  -4198035.433  -2530972.739
10 0 59534  12702.000000  0   -5172160.947  -4236574.205  -1670465.728
10 0 59534  12822.000000  0   -5409120.985  -4196230.224   -780595.921
99
